{
  "type": "FeatureCollection",
  "features": [
    {
      "type": "Feature",
      "properties": {
        "norad_id": 36585,
        "name": "GPS BIIF-1  (PRN 25)",
        "group": "gnss",
        "lat": 54.05635562163884,
        "lon": -46.21382458281916,
        "alt_km": 19884.184437027205,
        "timestamp": "2025-12-10T14:53:37.338074+00:00",
        "meta_object_name": "GPS BIIF-1  (PRN 25)",
        "meta_object_id": "2010-022A",
        "meta_epoch": "2025-12-10T05:52:32.460960",
        "meta_mean_motion": 2.00553058,
        "meta_eccentricity": 0.01260066,
        "meta_inclination": 54.3005,
        "meta_ra_of_asc_node": 216.1746,
        "meta_arg_of_pericenter": 65.0446,
        "meta_mean_anomaly": 117.4636,
        "meta_ephemeris_type": 0,
        "meta_classification_type": "U",
        "meta_norad_cat_id": 36585,
        "meta_element_set_no": 999,
        "meta_rev_at_epoch": 11380,
        "meta_bstar": 0,
        "meta_mean_motion_dot": 1e-07,
        "meta_mean_motion_ddot": 0,
        "tle_line1": "1 36585U 10022A   25344.24482015  .00000010  00000+0  00000+0 0  9995",
        "tle_line2": "2 36585  54.3005 216.1746 0126006  65.0446 117.4636  2.00553058113802"
      },
      "geometry": {
        "type": "Point",
        "coordinates": [
          -46.21382458281916,
          54.05635562163884
        ]
      }
    },
    {
      "type": "Feature",
      "properties": {
        "norad_id": 36828,
        "name": "BEIDOU-2 IGSO-1 (C06)",
        "group": "gnss",
        "lat": -48.0928490190945,
        "lon": 38.03468367083587,
        "alt_km": 35604.30864521014,
        "timestamp": "2025-12-10T14:53:37.338085+00:00",
        "meta_object_name": "BEIDOU-2 IGSO-1 (C06)",
        "meta_object_id": "2010-036A",
        "meta_epoch": "2025-12-09T10:39:31.929984",
        "meta_mean_motion": 1.00277193,
        "meta_eccentricity": 0.0051253,
        "meta_inclination": 54.2848,
        "meta_ra_of_asc_node": 164.6772,
        "meta_arg_of_pericenter": 215.9067,
        "meta_mean_anomaly": 325.5876,
        "meta_ephemeris_type": 0,
        "meta_classification_type": "U",
        "meta_norad_cat_id": 36828,
        "meta_element_set_no": 999,
        "meta_rev_at_epoch": 5619,
        "meta_bstar": 0,
        "meta_mean_motion_dot": -6.8e-07,
        "meta_mean_motion_ddot": 0,
        "tle_line1": "1 36828U 10036A   25343.44411956 -.00000068  00000+0  00000+0 0  9991",
        "tle_line2": "2 36828  54.2848 164.6772 0051253 215.9067 325.5876  1.00277193 56196"
      },
      "geometry": {
        "type": "Point",
        "coordinates": [
          38.03468367083587,
          -48.0928490190945
        ]
      }
    },
    {
      "type": "Feature",
      "properties": {
        "norad_id": 37210,
        "name": "BEIDOU-2 G4 (C04)",
        "group": "gnss",
        "lat": 1.7517212742895982,
        "lon": 102.98054398742384,
        "alt_km": 35828.73194232937,
        "timestamp": "2025-12-10T14:53:37.338098+00:00",
        "meta_object_name": "BEIDOU-2 G4 (C04)",
        "meta_object_id": "2010-057A",
        "meta_epoch": "2025-12-10T06:23:41.407872",
        "meta_mean_motion": 1.00271286,
        "meta_eccentricity": 0.00109728,
        "meta_inclination": 3.1785,
        "meta_ra_of_asc_node": 69.9392,
        "meta_arg_of_pericenter": 190.0069,
        "meta_mean_anomaly": 75.2939,
        "meta_ephemeris_type": 0,
        "meta_classification_type": "U",
        "meta_norad_cat_id": 37210,
        "meta_element_set_no": 999,
        "meta_rev_at_epoch": 5539,
        "meta_bstar": 0,
        "meta_mean_motion_dot": -1.08e-06,
        "meta_mean_motion_ddot": 0,
        "tle_line1": "1 37210U 10057A   25344.26645148 -.00000108  00000+0  00000+0 0  9998",
        "tle_line2": "2 37210   3.1785  69.9392 0010972 190.0069  75.2939  1.00271286 55395"
      },
      "geometry": {
        "type": "Point",
        "coordinates": [
          102.98054398742384,
          1.7517212742895982
        ]
      }
    },
    {
      "type": "Feature",
      "properties": {
        "norad_id": 37256,
        "name": "BEIDOU-2 IGSO-2 (C07)",
        "group": "gnss",
        "lat": 31.161356433944718,
        "lon": 61.070494052077755,
        "alt_km": 35742.42434644363,
        "timestamp": "2025-12-10T14:53:37.338109+00:00",
        "meta_object_name": "BEIDOU-2 IGSO-2 (C07)",
        "meta_object_id": "2010-068A",
        "meta_epoch": "2025-12-03T17:22:36.027840",
        "meta_mean_motion": 1.0028872,
        "meta_eccentricity": 0.00492449,
        "meta_inclination": 47.9042,
        "meta_ra_of_asc_node": 274.2614,
        "meta_arg_of_pericenter": 216.1411,
        "meta_mean_anomaly": 310.24,
        "meta_ephemeris_type": 0,
        "meta_classification_type": "U",
        "meta_norad_cat_id": 37256,
        "meta_element_set_no": 999,
        "meta_rev_at_epoch": 5483,
        "meta_bstar": 0,
        "meta_mean_motion_dot": -2.25e-06,
        "meta_mean_motion_ddot": 0,
        "tle_line1": "1 37256U 10068A   25337.72402810 -.00000225  00000+0  00000+0 0  9990",
        "tle_line2": "2 37256  47.9042 274.2614 0049244 216.1411 310.2400  1.00288720 54834"
      },
      "geometry": {
        "type": "Point",
        "coordinates": [
          61.070494052077755,
          31.161356433944718
        ]
      }
    },
    {
      "type": "Feature",
      "properties": {
        "norad_id": 37384,
        "name": "BEIDOU-2 IGSO-3 (C08)",
        "group": "gnss",
        "lat": 7.575581503218889,
        "lon": 45.99543769977961,
        "alt_km": 35935.20545864062,
        "timestamp": "2025-12-10T14:53:37.338121+00:00",
        "meta_object_name": "BEIDOU-2 IGSO-3 (C08)",
        "meta_object_id": "2011-013A",
        "meta_epoch": "2025-12-07T14:00:04.361184",
        "meta_mean_motion": 1.00271435,
        "meta_eccentricity": 0.0035334,
        "meta_inclination": 62.1366,
        "meta_ra_of_asc_node": 41.9657,
        "meta_arg_of_pericenter": 187.0632,
        "meta_mean_anomaly": 165.2408,
        "meta_ephemeris_type": 0,
        "meta_classification_type": "U",
        "meta_norad_cat_id": 37384,
        "meta_element_set_no": 999,
        "meta_rev_at_epoch": 5373,
        "meta_bstar": 0,
        "meta_mean_motion_dot": -1.91e-06,
        "meta_mean_motion_ddot": 0,
        "tle_line1": "1 37384U 11013A   25341.58338381 -.00000191  00000+0  00000+0 0  9995",
        "tle_line2": "2 37384  62.1366  41.9657 0035334 187.0632 165.2408  1.00271435 53735"
      },
      "geometry": {
        "type": "Point",
        "coordinates": [
          45.99543769977961,
          7.575581503218889
        ]
      }
    },
    {
      "type": "Feature",
      "properties": {
        "norad_id": 37605,
        "name": "GSAT-8 (GAGAN/PRN 127)",
        "group": "gnss",
        "lat": -1.6360210327809817,
        "lon": -1.813860406365499,
        "alt_km": 35787.61293414515,
        "timestamp": "2025-12-10T14:53:37.338132+00:00",
        "meta_object_name": "GSAT-8 (GAGAN/PRN 127)",
        "meta_object_id": "2011-022A",
        "meta_epoch": "2025-12-10T04:24:38.914272",
        "meta_mean_motion": 1.00270181,
        "meta_eccentricity": 0.00088722,
        "meta_inclination": 1.6436,
        "meta_ra_of_asc_node": 84.2162,
        "meta_arg_of_pericenter": 182.5858,
        "meta_mean_anomaly": 293.6099,
        "meta_ephemeris_type": 0,
        "meta_classification_type": "U",
        "meta_norad_cat_id": 37605,
        "meta_element_set_no": 999,
        "meta_rev_at_epoch": 5132,
        "meta_bstar": 0,
        "meta_mean_motion_dot": 8.8e-07,
        "meta_mean_motion_ddot": 0,
        "tle_line1": "1 37605U 11022A   25344.18378373  .00000088  00000+0  00000+0 0  9999",
        "tle_line2": "2 37605   1.6436  84.2162 0008872 182.5858 293.6099  1.00270181 51327"
      },
      "geometry": {
        "type": "Point",
        "coordinates": [
          -1.813860406365499,
          -1.6360210327809817
        ]
      }
    },
    {
      "type": "Feature",
      "properties": {
        "norad_id": 37763,
        "name": "BEIDOU-2 IGSO-4 (C09)",
        "group": "gnss",
        "lat": -38.581785350748696,
        "lon": 21.99863934079461,
        "alt_km": 35159.33730194506,
        "timestamp": "2025-12-10T14:53:37.338143+00:00",
        "meta_object_name": "BEIDOU-2 IGSO-4 (C09)",
        "meta_object_id": "2011-038A",
        "meta_epoch": "2025-12-01T12:32:09.960864",
        "meta_mean_motion": 1.00284084,
        "meta_eccentricity": 0.01488084,
        "meta_inclination": 54.5806,
        "meta_ra_of_asc_node": 167.4476,
        "meta_arg_of_pericenter": 230.2017,
        "meta_mean_anomaly": 315.0405,
        "meta_ephemeris_type": 0,
        "meta_classification_type": "U",
        "meta_norad_cat_id": 37763,
        "meta_element_set_no": 999,
        "meta_rev_at_epoch": 5266,
        "meta_bstar": 0,
        "meta_mean_motion_dot": 1.01e-06,
        "meta_mean_motion_ddot": 0,
        "tle_line1": "1 37763U 11038A   25335.52233751  .00000101  00000+0  00000+0 0  9995",
        "tle_line2": "2 37763  54.5806 167.4476 0148808 230.2017 315.0405  1.00284084 52669"
      },
      "geometry": {
        "type": "Point",
        "coordinates": [
          21.99863934079461,
          -38.581785350748696
        ]
      }
    }
  ]
}